{
  "type": "FeatureCollection",
  "features": [
    {
      "type": "Feature",
      "properties": {
        "norad_id": 30931,
        "name": "FENGYUN 1C DEB",
        "group": "fengyun-1c-debris",
        "lat": 12.751893101057279,
        "lon": -127.52889001089815,
        "alt_km": 942.7845612493611,
        "timestamp": "2025-12-18T19:29:52.823896+00:00",
        "meta_object_name": "FENGYUN 1C DEB",
        "meta_object_id": "1999-025AZV",
        "meta_epoch": "2025-12-18T03:33:13.112352",
        "meta_mean_motion": 14.01521909,
        "meta_eccentricity": 0.00929864,
        "meta_inclination": 99.1717,
        "meta_ra_of_asc_node": 49.7082,
        "meta_arg_of_pericenter": 26.5726,
        "meta_mean_anomaly": 29.6135,
        "meta_ephemeris_type": 0,
        "meta_classification_type": "U",
        "meta_norad_cat_id": 30931,
        "meta_element_set_no": 999,
        "meta_rev_at_epoch": 96001,
        "meta_bstar": 0.00045448147,
        "meta_mean_motion_dot": 6.68e-06,
        "meta_mean_motion_ddot": 0,
        "tle_line1": "1 30931U 99025AZV 25352.14806843  .00000668  00000+0  45448-3 0  9999",
        "tle_line2": "2 30931  99.1717  49.7082 0092986  26.5726  29.6135 14.01521909960018"
      },
      "geometry": {
        "type": "Point",
        "coordinates": [
          -127.52889001089815,
          12.751893101057279
        ]
      }
    },
    {
      "type": "Feature",
      "properties": {
        "norad_id": 30932,
        "name": "FENGYUN 1C DEB",
        "group": "fengyun-1c-debris",
        "lat": -69.48066826388828,
        "lon": -49.3975282888606,
        "alt_km": 768.9988403910629,
        "timestamp": "2025-12-18T19:29:52.823906+00:00",
        "meta_object_name": "FENGYUN 1C DEB",
        "meta_object_id": "1999-025AZW",
        "meta_epoch": "2025-12-18T06:21:59.112864",
        "meta_mean_motion": 14.26877143,
        "meta_eccentricity": 0.00575406,
        "meta_inclination": 98.9091,
        "meta_ra_of_asc_node": 285.2673,
        "meta_arg_of_pericenter": 278.0606,
        "meta_mean_anomaly": 81.4048,
        "meta_ephemeris_type": 0,
        "meta_classification_type": "U",
        "meta_norad_cat_id": 30932,
        "meta_element_set_no": 999,
        "meta_rev_at_epoch": 96473,
        "meta_bstar": 0.002186435,
        "meta_mean_motion_dot": 5.358e-05,
        "meta_mean_motion_ddot": 0,
        "tle_line1": "1 30932U 99025AZW 25352.26526751  .00005358  00000+0  21864-2 0  9996",
        "tle_line2": "2 30932  98.9091 285.2673 0057540 278.0606  81.4048 14.26877143964735"
      },
      "geometry": {
        "type": "Point",
        "coordinates": [
          -49.3975282888606,
          -69.48066826388828
        ]
      }
    },
    {
      "type": "Feature",
      "properties": {
        "norad_id": 30933,
        "name": "FENGYUN 1C DEB",
        "group": "fengyun-1c-debris",
        "lat": 39.28996328662393,
        "lon": -31.881878298492968,
        "alt_km": 770.6145417154066,
        "timestamp": "2025-12-18T19:29:52.823916+00:00",
        "meta_object_name": "FENGYUN 1C DEB",
        "meta_object_id": "1999-025AZX",
        "meta_epoch": "2025-12-17T17:22:45.204384",
        "meta_mean_motion": 14.36628533,
        "meta_eccentricity": 0.00763924,
        "meta_inclination": 99.0468,
        "meta_ra_of_asc_node": 334.4657,
        "meta_arg_of_pericenter": 308.4349,
        "meta_mean_anomaly": 225.3542,
        "meta_ephemeris_type": 0,
        "meta_classification_type": "U",
        "meta_norad_cat_id": 30933,
        "meta_element_set_no": 999,
        "meta_rev_at_epoch": 95943,
        "meta_bstar": 0.0036635505,
        "meta_mean_motion_dot": 0.00011114,
        "meta_mean_motion_ddot": 0,
        "tle_line1": "1 30933U 99025AZX 25351.72413431  .00011114  00000+0  36636-2 0  9997",
        "tle_line2": "2 30933  99.0468 334.4657 0076392 308.4349 225.3542 14.36628533959430"
      },
      "geometry": {
        "type": "Point",
        "coordinates": [
          -31.881878298492968,
          39.28996328662393
        ]
      }
    },
    {
      "type": "Feature",
      "properties": {
        "norad_id": 30934,
        "name": "FENGYUN 1C DEB",
        "group": "fengyun-1c-debris",
        "lat": -1.055370127508365,
        "lon": 48.902923626605364,
        "alt_km": 1187.0684328931065,
        "timestamp": "2025-12-18T19:29:52.823925+00:00",
        "meta_object_name": "FENGYUN 1C DEB",
        "meta_object_id": "1999-025AZY",
        "meta_epoch": "2025-12-17T21:14:31.307712",
        "meta_mean_motion": 13.4676055,
        "meta_eccentricity": 0.03409455,
        "meta_inclination": 98.7656,
        "meta_ra_of_asc_node": 228.2522,
        "meta_arg_of_pericenter": 68.4098,
        "meta_mean_anomaly": 295.3001,
        "meta_ephemeris_type": 0,
        "meta_classification_type": "U",
        "meta_norad_cat_id": 30934,
        "meta_element_set_no": 999,
        "meta_rev_at_epoch": 91777,
        "meta_bstar": 0.0018866865,
        "meta_mean_motion_dot": 1.591e-05,
        "meta_mean_motion_ddot": 0,
        "tle_line1": "1 30934U 99025AZY 25351.88508458  .00001591  00000+0  18867-2 0  9993",
        "tle_line2": "2 30934  98.7656 228.2522 0340945  68.4098 295.3001 13.46760550917773"
      },
      "geometry": {
        "type": "Point",
        "coordinates": [
          48.902923626605364,
          -1.055370127508365
        ]
      }
    },
    {
      "type": "Feature",
      "properties": {
        "norad_id": 30936,
        "name": "FENGYUN 1C DEB",
        "group": "fengyun-1c-debris",
        "lat": 78.71644660946129,
        "lon": -25.719375594457556,
        "alt_km": 839.1130890417899,
        "timestamp": "2025-12-18T19:29:52.823935+00:00",
        "meta_object_name": "FENGYUN 1C DEB",
        "meta_object_id": "1999-025BAA",
        "meta_epoch": "2025-12-18T00:41:11.712192",
        "meta_mean_motion": 14.23385345,
        "meta_eccentricity": 0.00459616,
        "meta_inclination": 98.5812,
        "meta_ra_of_asc_node": 22.6988,
        "meta_arg_of_pericenter": 275.0345,
        "meta_mean_anomaly": 113.4302,
        "meta_ephemeris_type": 0,
        "meta_classification_type": "U",
        "meta_norad_cat_id": 30936,
        "meta_element_set_no": 999,
        "meta_rev_at_epoch": 97208,
        "meta_bstar": 0.00042472882,
        "meta_mean_motion_dot": 9.31e-06,
        "meta_mean_motion_ddot": 0,
        "tle_line1": "1 30936U 99025BAA 25352.02860778  .00000931  00000+0  42473-3 0  9996",
        "tle_line2": "2 30936  98.5812  22.6988 0045961 275.0345 113.4302 14.23385345972080"
      },
      "geometry": {
        "type": "Point",
        "coordinates": [
          -25.719375594457556,
          78.71644660946129
        ]
      }
    },
    {
      "type": "Feature",
      "properties": {
        "norad_id": 30937,
        "name": "FENGYUN 1C DEB",
        "group": "fengyun-1c-debris",
        "lat": 26.191674767342857,
        "lon": 40.57288836500831,
        "alt_km": 853.8102024416821,
        "timestamp": "2025-12-18T19:29:52.823945+00:00",
        "meta_object_name": "FENGYUN 1C DEB",
        "meta_object_id": "1999-025BAB",
        "meta_epoch": "2025-12-18T02:28:38.518176",
        "meta_mean_motion": 13.95587459,
        "meta_eccentricity": 0.00756295,
        "meta_inclination": 99.0883,
        "meta_ra_of_asc_node": 44.3894,
        "meta_arg_of_pericenter": 38.682,
        "meta_mean_anomaly": 26.9901,
        "meta_ephemeris_type": 0,
        "meta_classification_type": "U",
        "meta_norad_cat_id": 30937,
        "meta_element_set_no": 999,
        "meta_rev_at_epoch": 95791,
        "meta_bstar": 0.00018084796,
        "meta_mean_motion_dot": 2.08e-06,
        "meta_mean_motion_ddot": 0,
        "tle_line1": "1 30937U 99025BAB 25352.10322359  .00000208  00000+0  18085-3 0  9993",
        "tle_line2": "2 30937  99.0883  44.3894 0075629  38.6820  26.9901 13.95587459957913"
      },
      "geometry": {
        "type": "Point",
        "coordinates": [
          40.57288836500831,
          26.191674767342857
        ]
      }
    },
    {
      "type": "Feature",
      "properties": {
        "norad_id": 30938,
        "name": "FENGYUN 1C DEB",
        "group": "fengyun-1c-debris",
        "lat": -78.61004425646252,
        "lon": 54.74762275395838,
        "alt_km": 811.4009845527862,
        "timestamp": "2025-12-18T19:29:52.823955+00:00",
        "meta_object_name": "FENGYUN 1C DEB",
        "meta_object_id": "1999-025BAC",
        "meta_epoch": "2025-12-17T23:52:10.070400",
        "meta_mean_motion": 14.19827307,
        "meta_eccentricity": 0.00456409,
        "meta_inclination": 98.5905,
        "meta_ra_of_asc_node": 5.3323,
        "meta_arg_of_pericenter": 328.4265,
        "meta_mean_anomaly": 91.4733,
        "meta_ephemeris_type": 0,
        "meta_classification_type": "U",
        "meta_norad_cat_id": 30938,
        "meta_element_set_no": 999,
        "meta_rev_at_epoch": 97194,
        "meta_bstar": 0.00030348823,
        "meta_mean_motion_dot": 6.07e-06,
        "meta_mean_motion_ddot": 0,
        "tle_line1": "1 30938U 99025BAC 25351.99456100  .00000607  00000+0  30349-3 0  9992",
        "tle_line2": "2 30938  98.5905   5.3323 0045640 328.4265  91.4733 14.19827307971945"
      },
      "geometry": {
        "type": "Point",
        "coordinates": [
          54.74762275395838,
          -78.61004425646252
        ]
      }
    }
  ]
}